CCSDS_OMM_VERS = 2.0
CREATION_DATE  = 
ORIGINATOR     = 

OBJECT_NAME    = TWILIGHT P
OBJECT_ID      = 2026-004P
CENTER_NAME    = EARTH
REF_FRAME      = TEME
TIME_SYSTEM    = UTC
MEAN_ELEMENT_THEORY = SGP/SGP4

EPOCH          = 2026-02-02T06:29:26.603520
MEAN_MOTION    = 14.87790788
ECCENTRICITY   = .00047739
INCLINATION    = 97.7998
RA_OF_ASC_NODE = 34.0744
ARG_OF_PERICENTER = 197.7212
MEAN_ANOMALY   = 162.3839

EPHEMERIS_TYPE = 0
CLASSIFICATION_TYPE = U
NORAD_CAT_ID   = 67376
ELEMENT_SET_NO = 999
REV_AT_EPOCH   = 323
BSTAR          = .30534515E-3
MEAN_MOTION_DOT = .2734E-4
MEAN_MOTION_DDOT = 0

CCSDS_OMM_VERS = 2.0
CREATION_DATE  = 
ORIGINATOR     = 

OBJECT_NAME    = TWILIGHT Q
OBJECT_ID      = 2026-004Q
CENTER_NAME    = EARTH
REF_FRAME      = TEME
TIME_SYSTEM    = UTC
MEAN_ELEMENT_THEORY = SGP/SGP4

EPOCH          = 2026-01-30T12:15:35.464032
MEAN_MOTION    = 14.88273239
ECCENTRICITY   = .00058744
INCLINATION    = 97.7999
RA_OF_ASC_NODE = 31.3669
ARG_OF_PERICENTER = 208.7548
MEAN_ANOMALY   = 151.3345

EPHEMERIS_TYPE = 0
CLASSIFICATION_TYPE = U
NORAD_CAT_ID   = 67377
ELEMENT_SET_NO = 999
REV_AT_EPOCH   = 281
BSTAR          = .1517736E-1
MEAN_MOTION_DOT = .143096E-2
MEAN_MOTION_DDOT = 0

CCSDS_OMM_VERS = 2.0
CREATION_DATE  = 
ORIGINATOR     = 

OBJECT_NAME    = TWILIGHT R
OBJECT_ID      = 2026-004R
CENTER_NAME    = EARTH
REF_FRAME      = TEME
TIME_SYSTEM    = UTC
MEAN_ELEMENT_THEORY = SGP/SGP4

EPOCH          = 2026-02-02T06:30:59.076576
MEAN_MOTION    = 14.87723084
ECCENTRICITY   = .00041335
INCLINATION    = 97.7972
RA_OF_ASC_NODE = 34.0675
ARG_OF_PERICENTER = 206.7005
MEAN_ANOMALY   = 153.3999

EPHEMERIS_TYPE = 0
CLASSIFICATION_TYPE = U
NORAD_CAT_ID   = 67378
ELEMENT_SET_NO = 999
REV_AT_EPOCH   = 322
BSTAR          = .30073565E-3
MEAN_MOTION_DOT = .2688E-4
MEAN_MOTION_DDOT = 0

CCSDS_OMM_VERS = 2.0
CREATION_DATE  = 
ORIGINATOR     = 

OBJECT_NAME    = TWILIGHT S
OBJECT_ID      = 2026-004S
CENTER_NAME    = EARTH
REF_FRAME      = TEME
TIME_SYSTEM    = UTC
MEAN_ELEMENT_THEORY = SGP/SGP4

EPOCH          = 2026-02-02T06:30:44.951040
MEAN_MOTION    = 14.87730935
ECCENTRICITY   = .00046633
INCLINATION    = 97.7976
RA_OF_ASC_NODE = 34.0695
ARG_OF_PERICENTER = 203.4118
MEAN_ANOMALY   = 156.6887

EPHEMERIS_TYPE = 0
CLASSIFICATION_TYPE = U
NORAD_CAT_ID   = 67379
ELEMENT_SET_NO = 999
REV_AT_EPOCH   = 322
BSTAR          = .29211308E-3
MEAN_MOTION_DOT = .261E-4
MEAN_MOTION_DDOT = 0

CCSDS_OMM_VERS = 2.0
CREATION_DATE  = 
ORIGINATOR     = 

OBJECT_NAME    = TWILIGHT T
OBJECT_ID      = 2026-004T
CENTER_NAME    = EARTH
REF_FRAME      = TEME
TIME_SYSTEM    = UTC
MEAN_ELEMENT_THEORY = SGP/SGP4

EPOCH          = 2026-02-02T06:28:50.458080
MEAN_MOTION    = 14.87832250
ECCENTRICITY   = .00041926
INCLINATION    = 97.7969
RA_OF_ASC_NODE = 34.0695
ARG_OF_PERICENTER = 201.8310
MEAN_ANOMALY   = 158.2729

EPHEMERIS_TYPE = 0
CLASSIFICATION_TYPE = U
NORAD_CAT_ID   = 67380
ELEMENT_SET_NO = 999
REV_AT_EPOCH   = 322
BSTAR          = .30013935E-3
MEAN_MOTION_DOT = .2689E-4
MEAN_MOTION_DDOT = 0

CCSDS_OMM_VERS = 2.0
CREATION_DATE  = 
ORIGINATOR     = 

OBJECT_NAME    = TWILIGHT U
OBJECT_ID      = 2026-004U
CENTER_NAME    = EARTH
REF_FRAME      = TEME
TIME_SYSTEM    = UTC
MEAN_ELEMENT_THEORY = SGP/SGP4

EPOCH          = 2026-01-29T02:22:17.171904
MEAN_MOTION    = 14.87635167
ECCENTRICITY   = .00020462
INCLINATION    = 97.8008
RA_OF_ASC_NODE = 29.9801
ARG_OF_PERICENTER = 271.4981
MEAN_ANOMALY   = 88.6001

EPHEMERIS_TYPE = 0
CLASSIFICATION_TYPE = U
NORAD_CAT_ID   = 67381
ELEMENT_SET_NO = 999
REV_AT_EPOCH   = 260
BSTAR          = -.12141477E-1
MEAN_MOTION_DOT = -.108717E-2
MEAN_MOTION_DDOT = 0

CCSDS_OMM_VERS = 2.0
CREATION_DATE  = 
ORIGINATOR     = 

OBJECT_NAME    = TWILIGHT V
OBJECT_ID      = 2026-004V
CENTER_NAME    = EARTH
REF_FRAME      = TEME
TIME_SYSTEM    = UTC
MEAN_ELEMENT_THEORY = SGP/SGP4

EPOCH          = 2026-02-02T06:24:43.295328
MEAN_MOTION    = 14.88016528
ECCENTRICITY   = .00042078
INCLINATION    = 97.7996
RA_OF_ASC_NODE = 34.0785
ARG_OF_PERICENTER = 187.0040
MEAN_ANOMALY   = 173.1119

EPHEMERIS_TYPE = 0
CLASSIFICATION_TYPE = U
NORAD_CAT_ID   = 67382
ELEMENT_SET_NO = 999
REV_AT_EPOCH   = 322
BSTAR          = .2930119E-3
MEAN_MOTION_DOT = .2636E-4
MEAN_MOTION_DDOT = 0

CCSDS_OMM_VERS = 2.0
CREATION_DATE  = 
ORIGINATOR     = 

OBJECT_NAME    = TWILIGHT W
OBJECT_ID      = 2026-004W
CENTER_NAME    = EARTH
REF_FRAME      = TEME
TIME_SYSTEM    = UTC
MEAN_ELEMENT_THEORY = SGP/SGP4

EPOCH          = 2026-02-02T06:30:27.149184
MEAN_MOTION    = 14.87749538
ECCENTRICITY   = .00044891
INCLINATION    = 97.7973
RA_OF_ASC_NODE = 34.0690
ARG_OF_PERICENTER = 204.2246
MEAN_ANOMALY   = 155.8760

EPHEMERIS_TYPE = 0
CLASSIFICATION_TYPE = U
NORAD_CAT_ID   = 67383
ELEMENT_SET_NO = 999
REV_AT_EPOCH   = 322
BSTAR          = .30651321E-3
MEAN_MOTION_DOT = .2742E-4
MEAN_MOTION_DDOT = 0

CCSDS_OMM_VERS = 2.0
CREATION_DATE  = 
ORIGINATOR     = 

OBJECT_NAME    = TWILIGHT X
OBJECT_ID      = 2026-004X
CENTER_NAME    = EARTH
REF_FRAME      = TEME
TIME_SYSTEM    = UTC
MEAN_ELEMENT_THEORY = SGP/SGP4

EPOCH          = 2026-02-02T06:21:52.605216
MEAN_MOTION    = 14.88268009
ECCENTRICITY   = .00036082
INCLINATION    = 97.7969
RA_OF_ASC_NODE = 34.0766
ARG_OF_PERICENTER = 187.0361
MEAN_ANOMALY   = 173.0806

EPHEMERIS_TYPE = 0
CLASSIFICATION_TYPE = U
NORAD_CAT_ID   = 67384
ELEMENT_SET_NO = 999
REV_AT_EPOCH   = 322
BSTAR          = .63266246E-3
MEAN_MOTION_DOT = .5793E-4
MEAN_MOTION_DDOT = 0

CCSDS_OMM_VERS = 2.0
CREATION_DATE  = 
ORIGINATOR     = 

OBJECT_NAME    = TWILIGHT Y
OBJECT_ID      = 2026-004Y
CENTER_NAME    = EARTH
REF_FRAME      = TEME
TIME_SYSTEM    = UTC
MEAN_ELEMENT_THEORY = SGP/SGP4

EPOCH          = 2026-02-02T06:20:06.002304
MEAN_MOTION    = 14.88362703
ECCENTRICITY   = .00036213
INCLINATION    = 97.7981
RA_OF_ASC_NODE = 34.0802
ARG_OF_PERICENTER = 180.3032
MEAN_ANOMALY   = 179.8184

EPHEMERIS_TYPE = 0
CLASSIFICATION_TYPE = U
NORAD_CAT_ID   = 67385
ELEMENT_SET_NO = 999
REV_AT_EPOCH   = 322
BSTAR          = .65276002E-3
MEAN_MOTION_DOT = .5993E-4
MEAN_MOTION_DDOT = 0

CCSDS_OMM_VERS = 2.0
CREATION_DATE  = 
ORIGINATOR     = 

OBJECT_NAME    = TWILIGHT Z
OBJECT_ID      = 2026-004Z
CENTER_NAME    = EARTH
REF_FRAME      = TEME
TIME_SYSTEM    = UTC
MEAN_ELEMENT_THEORY = SGP/SGP4

EPOCH          = 2026-02-02T06:18:06.074784
MEAN_MOTION    = 14.88335267
ECCENTRICITY   = .00024095
INCLINATION    = 97.7963
RA_OF_ASC_NODE = 34.0796
ARG_OF_PERICENTER = 177.6437
MEAN_ANOMALY   = 182.4792

EPHEMERIS_TYPE = 0
CLASSIFICATION_TYPE = U
NORAD_CAT_ID   = 67386
ELEMENT_SET_NO = 999
REV_AT_EPOCH   = 322
BSTAR          = .3286432E-3
MEAN_MOTION_DOT = .2987E-4
MEAN_MOTION_DDOT = 0

CCSDS_OMM_VERS = 2.0
CREATION_DATE  = 
ORIGINATOR     = 

OBJECT_NAME    = TWILIGHT AA
OBJECT_ID      = 2026-004AA
CENTER_NAME    = EARTH
REF_FRAME      = TEME
TIME_SYSTEM    = UTC
MEAN_ELEMENT_THEORY = SGP/SGP4

EPOCH          = 2026-02-02T06:12:40.002912
MEAN_MOTION    = 14.88672505
ECCENTRICITY   = .00036162
INCLINATION    = 97.8012
RA_OF_ASC_NODE = 34.0909
ARG_OF_PERICENTER = 149.9041
MEAN_ANOMALY   = 210.2384

EPHEMERIS_TYPE = 0
CLASSIFICATION_TYPE = U
NORAD_CAT_ID   = 67387
ELEMENT_SET_NO = 999
REV_AT_EPOCH   = 322
BSTAR          = .59753305E-3
MEAN_MOTION_DOT = .5524E-4
MEAN_MOTION_DDOT = 0

