TWILIGHT P              
1 67376U 26004P   26033.27044680  .00002734  00000+0  30535-3 0  9990
2 67376  97.7998  34.0744 0004773 197.7212 162.3839 14.87790788  3231
TWILIGHT Q              
1 67377U 26004Q   26030.51082713  .00143096  00000+0  15177-1 0  9994
2 67377  97.7999  31.3669 0005874 208.7548 151.3345 14.88273239  2818
TWILIGHT R              
1 67378U 26004R   26033.27151709  .00002688  00000+0  30074-3 0  9999
2 67378  97.7972  34.0675 0004133 206.7005 153.3999 14.87723084  3220
TWILIGHT S              
1 67379U 26004S   26033.27135360  .00002610  00000+0  29211-3 0  9991
2 67379  97.7976  34.0695 0004663 203.4118 156.6887 14.87730935  3229
TWILIGHT T              
1 67380U 26004T   26033.27002845  .00002689  00000+0  30014-3 0  9993
2 67380  97.7969  34.0695 0004192 201.8310 158.2729 14.87832250  3222
TWILIGHT U              
1 67381U 26004U   26029.09880986 -.00108717  00000+0 -12141-1 0  9999
2 67381  97.8008  29.9801 0002046 271.4981  88.6001 14.87635167  2601
TWILIGHT V              
1 67382U 26004V   26033.26716777  .00002636  00000+0  29301-3 0  9999
2 67382  97.7996  34.0785 0004207 187.0040 173.1119 14.88016528  3228
TWILIGHT W              
1 67383U 26004W   26033.27114756  .00002742  00000+0  30651-3 0  9998
2 67383  97.7973  34.0690 0004489 204.2246 155.8760 14.87749538  3223
TWILIGHT X              
1 67384U 26004X   26033.26519219  .00005793  00000+0  63266-3 0  9998
2 67384  97.7969  34.0766 0003608 187.0361 173.0806 14.88268009  3224
TWILIGHT Y              
1 67385U 26004Y   26033.26395836  .00005993  00000+0  65276-3 0  9991
2 67385  97.7981  34.0802 0003621 180.3032 179.8184 14.88362703  3225
TWILIGHT Z              
1 67386U 26004Z   26033.26257031  .00002987  00000+0  32864-3 0  9993
2 67386  97.7963  34.0796 0002409 177.6437 182.4792 14.88335267  3229
TWILIGHT AA             
1 67387U 26004AA  26033.25879633  .00005524  00000+0  59753-3 0  9997
2 67387  97.8012  34.0909 0003616 149.9041 210.2384 14.88672505  3222
